IRIDIUM 33 DEB          
1 36566U 97051WV  17345.15190717  .00001950  00000-0  89229-3 0  9997
2 36566  86.4288 300.7915 0170417 216.4079 142.5420 14.13636020429344
